ONEWEB-0504             
1 54122U 22138K   24343.77025960  .00000026  00000+0  33610-4 0  9996
2 54122  87.9183  55.4037 0001869  89.3521 270.7826 13.19726241104449
ONEWEB-0505             
1 54123U 22138L   24343.46383432  .00000107  00000+0  23469-3 0  9994
2 54123  87.9182  55.4573 0001667  79.0417 281.0903 13.19726417103513
ONEWEB-0506             
1 54124U 22138M   24343.21111120  .00000056  00000+0  10821-3 0  9992
2 54124  87.9180  55.5047 0001662  93.2916 266.8406 13.19727229103472
ONEWEB-0507             
1 54125U 22138N   24343.76235805  .00000071  00000+0  14505-3 0  9990
2 54125  87.9189  55.4308 0001555  95.3378 264.7932 13.19727018104464
ONEWEB-0508             
1 54126U 22138P   24343.53174851  .00000102  00000+0  22344-3 0  9994
2 54126  87.9186  55.4651 0001423  90.6892 269.4403 13.19727168103545
ONEWEB-0509             
1 54127U 22138Q   24343.50648060 -.00000003  00000+0 -39267-4 0  9995
2 54127  87.9181  55.4456 0001693  96.6429 263.4897 13.19726596103517
ONEWEB-0510             
1 54128U 22138R   24343.68270508  .00000003  00000+0 -23724-4 0  9993
2 54128  87.9265  24.9531 0001750 106.3752 253.7574 13.20770813106855
ONEWEB-0511             
1 54129U 22138S   24343.50332127  .00000050  00000+0  91502-4 0  9991
2 54129  87.9181  55.4504 0002065  94.5855 265.5513 13.19726008103546
